GALAXY 25 (G-25)        
1 24812U 97026A   22265.52265694 -.00000006  00000+0  00000+0 0  9992
2 24812   3.9274  82.6585 0002529 112.9957  59.9834  1.00272488 92696
INTELSAT 5 (IS-5)       
1 24916U 97046A   22264.75336441 -.00000063  00000+0  00000+0 0  9995
2 24916   7.4298  60.3681 0004603 139.4068 238.2001  1.00271517 91945
GALAXY 11 (G-11)        
1 26038U 99071A   22265.19296863 -.00000166  00000+0  00000+0 0  9998
2 26038   3.2501  86.4233 0000958 196.3858  54.6128  1.00271659 83390
INTELSAT 9 (IS-9)       
1 26451U 00043A   22264.85049503 -.00000288  00000+0  00000+0 0  9992
2 26451   7.4148  60.5443 0002756 142.2244  54.1169  1.00270292 30467
INTELSAT 1R (IS-1R)     
1 26608U 00072A   22264.89509056 -.00000141  00000+0  00000+0 0  9994
2 26608   4.6839  79.7478 0000102 190.9941 209.3521  1.00271446 79971
INTELSAT 10 (IS-10)     
1 26766U 01019A   22264.75571882  .00000032  00000+0  00000+0 0  9990
2 26766   5.8015  72.5241 0002616 121.5654 256.3858  1.00272336 31946
INTELSAT 901 (IS-901)   
1 26824U 01024A   22265.34493943 -.00000207  00000+0  00000+0 0  9993
2 26824   0.0252 175.3065 0000969  33.4940 249.0731  1.00270310 77911
INTELSAT 902 (IS-902)   
1 26900U 01039A   22265.08452167 -.00000286  00000+0  00000+0 0  9995
2 26900   2.6434  87.9146 0002414 100.2540 153.1049  1.00271761 77097
INTELSAT 904 (IS-904)   
1 27380U 02007A   22265.34493943 -.00000216  00000+0  00000+0 0  9993
2 27380   3.4740  84.8875 0002779  98.8892 272.1035  1.00271268 75413
DIRECTV 5 (TEMPO 1)     
1 27426U 02023A   22265.51001432 -.00000060  00000+0  00000+0 0  9996
2 27426   1.3683  92.0160 0003296  99.7598 243.0789  1.00272760 74637
INTELSAT 905 (IS-905)   
1 27438U 02027A   22264.82410664 -.00000188  00000+0  00000+0 0  9998
2 27438   3.2947  85.6245 0002467 105.0576  82.1757  1.00271251 37687
GALAXY 3C (G-3C)        
1 27445U 02030A   22264.84486316 -.00000157  00000+0  00000+0 0  9995
2 27445   0.2178  88.1852 0000779 196.3596 285.4728  1.00272452 32819
INTELSAT 906 (IS-906)   
1 27513U 02041A   22264.87209140  .00000010  00000+0  00000+0 0  9991
2 27513   2.3118  89.3631 0002869 101.1581 188.2956  1.00271991 73343
GALAXY 12 (G-12)        
1 27715U 03013B   22264.69457934  .00000054  00000+0  00000+0 0  9999
2 27715   3.5054  84.5397 0001810 110.5772 286.4916  1.00271448 38419
GALAXY 23 (G-23)        
1 27854U 03034A   22265.49824221  .00000008  00000+0  00000+0 0  9991
2 27854   0.0084 180.7108 0002937  20.1203 218.8861  1.00272472 74879
GALAXY 13 (HORIZONS-1)  
1 27954U 03044A   22264.69492812  .00000043  00000+0  00000+0 0  9990
2 27954   0.0036 190.1702 0001324 342.4499 311.0760  1.00270524 32894
INTELSAT 10-02          
1 28358U 04022A   22264.76924601 -.00000016  00000+0  00000+0 0  9991
2 28358   0.0176 237.5683 0000933 332.2028  66.8086  1.00271636 66867
XM-3 (RHYTHM)           
1 28626U 05008A   22265.19732729 -.00000210  00000+0  00000+0 0  9996
2 28626   0.0211 143.7164 0001476  38.5098 164.7684  1.00267969 64384
DIRECTV 8               
1 28659U 05019A   22265.49994186 -.00000004  00000+0  00000+0 0  9995
2 28659   0.0161 153.5597 0002492  35.7826 232.9402  1.00272503 63510
GALAXY 28 (G-28)        
1 28702U 05022A   22265.49170082 -.00000190  00000+0  00000+0 0  9995
2 28702   0.0066 133.1828 0001940  62.3001 253.8628  1.00271155 63156
GALAXY 14 (G-14)        
1 28790U 05030A   22265.05951948  .00000151  00000+0  00000+0 0  9997
2 28790   1.5005  91.1641 0001848  84.7226 239.3596  1.00270368 62621
GALAXY 15 (G-15)        
1 28884U 05041A   22265.50257876  .00000067  00000+0  00000+0 0  9998
2 28884   0.0591  87.4304 0002389 118.9558 204.0010  1.00286288 61933
SPACEWAY 2              
1 28903U 05046B   22264.76435166  .00000099  00000+0  00000+0 0  9997
2 28903   2.1200  87.0136 0000280  67.0674 342.8119  1.00272378 37664
GALAXY 16 (G-16)        
1 29236U 06023A   22265.52367538 -.00000131  00000+0  00000+0 0  9993
2 29236   0.0307 251.8441 0002651 298.4331 260.6155  1.00272133 59595
DIRECTV 9S              
1 29494U 06043A   22265.52187113 -.00000118  00000+0  00000+0 0  9995
2 29494   0.0105 162.0112 0003100  29.4377 256.5964  1.00272072 58433
XM-4 (BLUES)            
1 29520U 06049A   22264.84678156 -.00000211  00000+0  00000+0 0  9991
2 29520   0.0638 324.4850 0001838 352.2832 263.6870  1.00272147 37790
GALAXY 17 (G-17)        
1 31307U 07016B   22265.51407823 -.00000178  00000+0  00000+0 0  9990
2 31307   0.0224 148.8719 0002750  49.0604 257.4934  1.00269159 56401
DIRECTV 10              
1 31862U 07032A   22265.52027911 -.00000108  00000+0  00000+0 0  9994
2 31862   0.0449 334.5758 0000323 275.4041 195.8876  1.00271434 55731
SPACEWAY 3              
1 32018U 07036A   22265.19206804 -.00000156  00000+0  00000+0 0  9998
2 32018   0.4693  90.4821 0000171  42.5794 202.1818  1.00272374 55459
INTELSAT 11 (IS-11)     
1 32253U 07044B   22264.85515279 -.00000273  00000+0  00000+0 0  9999
2 32253   0.0298  99.5432 0001858 110.2963  55.7316  1.00269941 54819
HORIZONS-2              
1 32388U 07063B   22264.85018237 -.00000252  00000+0  00000+0 0  9998
2 32388   0.0176 135.2899 0001704 351.8688 111.4790  0.99987885 54137
DIRECTV 11              
1 32729U 08013A   22265.52367588 -.00000130  00000+0  00000+0 0  9999
2 32729   0.0232  10.3349 0000102 106.3322 334.0471  1.00271992 53261
GALAXY 18 (G-18)        
1 32951U 08024A   22264.69571293  .00000020  00000+0  00000+0 0  9992
2 32951   0.0135 236.0929 0003452 320.5640 291.3495  1.00272802 32174
INTELSAT 25 (IS-25)     
1 33153U 08034A   22265.11753439 -.00000229  00000+0  00000+0 0  9992
2 33153   0.0112 206.3772 0002908 337.9299 187.4799  1.00271275 51960
GALAXY 19 (G-19)        
1 33376U 08045A   22265.52705727 -.00000144  00000+0  00000+0 0  9999
2 33376   0.0153 238.5701 0002936 310.2250 265.3291  1.00272784 51164
FM-5                    
1 35493U 09034A   22265.19732707 -.00000205  00000+0  00000+0 0  9999
2 35493   0.0224 174.6492 0000137 215.5187 315.7566  1.00269978 48307
INTELSAT 14 (IS-14)     
1 36097U 09064A   22265.39494109 -.00000278  00000+0  00000+0 0  9996
2 36097   0.0272 158.0950 0002542  44.9377 255.3885  1.00268224 47027
INTELSAT 15 (IS-15)     
1 36106U 09067A   22264.88448907 -.00000190  00000+0  00000+0 0  9991
2 36106   0.0299 293.4340 0002316 261.5237 209.3517  1.00271752 46924
DIRECTV 12              
1 36131U 09075A   22265.20789472 -.00000109  00000+0  00000+0 0  9990
2 36131   0.0221 282.4304 0000206 332.1899  78.5814  1.00272378 46718
INTELSAT 16 (IS-16)     
1 36397U 10006A   22264.84852557 -.00000250  00000+0  00000+0 0  9991
2 36397   0.0267 280.4722 0002279 274.1305  35.3760  1.00271622 45972
XM-5                    
1 37185U 10053A   22265.18077322 -.00000028  00000+0  00000+0 0  9999
2 37185   0.0238 178.9638 0000564 192.8183 299.1179  1.00271283 43760
INTELSAT 17 (IS-17)     
1 37238U 10065B   22265.52256975 -.00000006  00000+0  00000+0 0  9998
2 37238   0.0217 202.6296 0002504 345.7336  67.1359  1.00272888 43244
INTELSAT NEW DAWN       
1 37392U 11016A   22265.35188287  .00000151  00000+0  00000+0 0  9997
2 37392   0.0155 151.8234 0000621  33.3775 335.4905  1.00272529 41842
INTELSAT 18 (IS-18)     
1 37834U 11056A   22264.82785907  .00000048  00000+0  00000+0 0  9990
2 37834   0.0053  46.9568 0001919 134.3202 297.4444  1.00274537 40139
INTELSAT 22 (IS-22)     
1 38098U 12011A   22264.87599823 -.00000064  00000+0  00000+0 0  9999
2 38098   0.0232 232.7079 0003058 310.6049 204.8795  1.00272353 38375
INTELSAT 19 (IS-19)     
1 38356U 12030A   22265.11207683 -.00000061  00000+0  00000+0 0  9992
2 38356   0.0244 171.9217 0003027  19.8207  15.5711  1.00270793 37834
INTELSAT 20 (IS-20)     
1 38740U 12043A   22264.87339876 -.00000030  00000+0  00000+0 0  9991
2 38740   0.0170 158.3223 0001815  20.1223 205.1932  1.00270917 37066
INTELSAT 21 (IS-21)     
1 38749U 12045A   22265.26438110 -.00000289  00000+0  00000+0 0  9993
2 38749   0.0255 155.0134 0002195  36.7565 206.5060  1.00267012 36965
INTELSAT 23 (IS-23)     
1 38867U 12057A   22265.09874451 -.00000290  00000+0  00000+0 0  9992
2 38867   0.0473 266.7773 0001103 131.5024 305.2424  1.00273728 36422
FM-6                    
1 39360U 13058A   22265.18001618 -.00000022  00000+0  00000+0 0  9993
2 39360   0.0423 266.2700 0000378 167.4350 235.9685  1.00274019 32668
INTELSAT 30 (IS-30)     
1 40271U 14062A   22265.00535588 -.00000156  00000+0  00000+0 0  9999
2 40271   0.0205 208.7893 0001880 233.3294 185.6147  1.00270923 29088
DIRECTV 14              
1 40333U 14078B   22265.21009403 -.00000130  00000+0  00000+0 0  9992
2 40333   0.0192 107.8783 0000367 146.7489  82.8413  1.00270391 28577
DIRECTV 15              
1 40663U 15026A   22265.52027994 -.00000107  00000+0  00000+0 0  9995
2 40663   0.0147 122.1888 0000311 255.2570  68.3436  1.00268305 26861
SKY MEXICO-1            
1 40664U 15026B   22265.45212402 -.00000239  00000+0  00000+0 0  9994
2 40664   0.0187 159.8880 0002484  50.1419 235.2489  1.00267552 26868
INTELSAT 34 (IS-34)     
1 40874U 15039A   22264.85049503 -.00000290  00000+0  00000+0 0  9991
2 40874   0.0477 295.5283 0000526 102.6396 213.2269  1.00270138 25944
INTELSAT 31 (IS-31)     
1 41581U 16035A   22265.19206812 -.00000156  00000+0  00000+0 0  9991
2 41581   0.0218 230.1931 0001319 350.0981 114.8406  1.00270653 23004
INTELSAT 36 (IS-36)     
1 41747U 16053A   22264.87339876 -.00000029  00000+0  00000+0 0  9995
2 41747   0.0162 154.7460 0002735 204.3667  24.5240  1.00269134 22261
INTELSAT 33E (IS-33E)   
1 41748U 16053B   22264.87573206  .00000044  00000+0  00000+0 0  9999
2 41748   0.0189 181.1216 0001674   2.9825 191.8679  1.00269601 22569
INTELSAT 32E (IS-32E)   
1 41945U 17007B   22264.85515279 -.00000274  00000+0  00000+0 0  9998
2 41945   0.0195 157.3769 0000058  31.4964  76.5053  1.00269652 20557
INTELSAT 35E (IS-35E)   
1 42818U 17041A   22264.85689679 -.00000243  00000+0  00000+0 0  9998
2 42818   0.0192 164.0247 0001717  34.7302  75.9352  1.00270885 19132
INTELSAT 37E (IS-37E)   
1 42950U 17059A   22264.81854953 -.00000146  00000+0  00000+0 0  9991
2 42950   0.0133 167.4423 0002854  26.6295  83.2805  1.00271623 18383
AZERSPACE 2 (IS-38)     
1 43632U 18074A   22265.51847133  .00000132  00000+0  00000+0 0  9991
2 43632   0.0187 153.6822 0001478  43.1496  36.2912  1.00272309 14765
HORIZONS-3E             
1 43633U 18074B   22265.55941023 -.00000035  00000+0  00000+0 0  9992
2 43633   0.0081  43.5217 0001097 250.5814  77.6737  1.00269992 14644
AT&T T-16               
1 44333U 19034A   22265.52187172 -.00000120  00000+0  00000+0 0  9996
2 44333   0.0188 157.1913 0000803 317.6754 333.5368  1.00272256 11959
INTELSAT 39 (IS-39)     
1 44476U 19049B   22264.87198332  .00000028  00000+0  00000+0 0  9993
2 44476   0.0247 173.1129 0000707 171.0061  32.4514  1.00270255 11456
GALAXY 30 (G-30)        
1 46114U 20056C   22265.17547804  .00000032  00000+0  00000+0 0  9995
2 46114   0.0108 231.8275 0002420 318.7018 108.6705  1.00272552  7728
